HXMT (HUIYAN)           
1 42758U 17034A   26119.31907413  .00004395  00000+0  22095-3 0  9999
2 42758  43.0130  95.0548 0031926 197.5499 162.4248 15.18021021490231
SAOCOM 1A               
1 43641U 18076A   26119.32592360 -.00000001  00000+0  63835-5 0  9990
2 43641  97.8900 306.7823 0001521  88.8012 271.3375 14.82154957408868
H-2A R/B                
1 43682U 18084L   26119.20500553  .00016472  00000+0  36806-3 0  9998
2 43682  98.8657 347.4573 0023558 204.7310 155.2806 15.43340329413561
SAOCOM 1B               
1 46265U 20059A   26119.28966148  .00000781  00000+0  10471-3 0  9993
2 46265  97.8892 305.8403 0001512  87.6532 272.4854 14.82123809306246
CSS (TIANHE)            
1 48274U 21035A   26119.29276164  .00024304  00000+0  26128-3 0  9996
2 48274  41.4670 259.6892 0006720 294.8337  65.1804 15.63149064285526
COSMOS 2550             
1 48865U 21056A   26118.85757205 -.00000109  00000+0  25227-5 0  9995
2 48865  67.1429 249.1245 0008399 269.8654  90.1538 15.33829624271153
CZ-2C R/B               
1 52794U 22058K   26119.24097964  .00043340  00000+0  55004-3 0  9994
2 52794  50.1872  57.4968 0038220  57.6083 302.8579 15.58056658218009
CZ-2C R/B               
1 54039U 22132E   26119.03750865  .00047324  00000+0  45213-3 0  9991
2 54039  97.2926 124.0645 0013026 256.2777 103.7033 15.66496857198246
GSLV R/B                
1 54149U 22138AN  26119.32525577  .00001981  00000+0  16894-3 0  9993
2 54149  87.3808 149.3941 0019951 334.1612  25.8622 14.97041733191505
XRISM                   
1 57800U 23137A   26119.21543314  .00005068  00000+0  28194-3 0  9993
2 57800  31.0021 316.7162 0007655 190.1191 169.9295 15.12039705145442
ACS3                    
1 59588U 24077B   26118.42628241  .00000948  00000+0  75623-3 0  9998
2 59588  97.1803  48.3648 0058342 343.7079  16.2209 13.91927163101119
HTV-X1                  
1 66174U 25241A   26118.55936247  .00013912  00000+0  15523-3 0  9991
2 66174  51.6354 191.3330 0007132   1.9599 358.1422 15.63079555 28580
SZ-21 MODULE            
1 66515U 25246C   26118.67245089  .00040544  00000+0  29634-3 0  9994
2 66515  41.4734 254.7618 0003706 344.0084  16.0641 15.72433742 25935
