[{"OBJECT_NAME":"HXMT (HUIYAN)","OBJECT_ID":"2017-034A","EPOCH":"2026-04-29T07:39:28.004832","MEAN_MOTION":15.18021021,"ECCENTRICITY":0.00319265,"INCLINATION":43.013,"RA_OF_ASC_NODE":95.0548,"ARG_OF_PERICENTER":197.5499,"MEAN_ANOMALY":162.4248,"EPHEMERIS_TYPE":0,"CLASSIFICATION_TYPE":"U","NORAD_CAT_ID":42758,"ELEMENT_SET_NO":999,"REV_AT_EPOCH":49023,"BSTAR":0.00022095081,"MEAN_MOTION_DOT":4.395e-5,"MEAN_MOTION_DDOT":0},{"OBJECT_NAME":"SAOCOM 1A","OBJECT_ID":"2018-076A","EPOCH":"2026-04-29T07:49:19.799040","MEAN_MOTION":14.82154957,"ECCENTRICITY":0.00015212,"INCLINATION":97.89,"RA_OF_ASC_NODE":306.7823,"ARG_OF_PERICENTER":88.8012,"MEAN_ANOMALY":271.3375,"EPHEMERIS_TYPE":0,"CLASSIFICATION_TYPE":"U","NORAD_CAT_ID":43641,"ELEMENT_SET_NO":999,"REV_AT_EPOCH":40886,"BSTAR":6.383543e-6,"MEAN_MOTION_DOT":-1.0e-8,"MEAN_MOTION_DDOT":0},{"OBJECT_NAME":"H-2A R/B","OBJECT_ID":"2018-084L","EPOCH":"2026-04-29T04:55:12.477792","MEAN_MOTION":15.43340329,"ECCENTRICITY":0.00235586,"INCLINATION":98.8657,"RA_OF_ASC_NODE":347.4573,"ARG_OF_PERICENTER":204.731,"MEAN_ANOMALY":155.2806,"EPHEMERIS_TYPE":0,"CLASSIFICATION_TYPE":"U","NORAD_CAT_ID":43682,"ELEMENT_SET_NO":999,"REV_AT_EPOCH":41356,"BSTAR":0.00036805848,"MEAN_MOTION_DOT":0.00016472,"MEAN_MOTION_DDOT":0},{"OBJECT_NAME":"SAOCOM 1B","OBJECT_ID":"2020-059A","EPOCH":"2026-04-29T06:57:06.751872","MEAN_MOTION":14.82123809,"ECCENTRICITY":0.00015124,"INCLINATION":97.8892,"RA_OF_ASC_NODE":305.8403,"ARG_OF_PERICENTER":87.6532,"MEAN_ANOMALY":272.4854,"EPHEMERIS_TYPE":0,"CLASSIFICATION_TYPE":"U","NORAD_CAT_ID":46265,"ELEMENT_SET_NO":999,"REV_AT_EPOCH":30624,"BSTAR":0.00010471409,"MEAN_MOTION_DOT":7.81e-6,"MEAN_MOTION_DDOT":0},{"OBJECT_NAME":"CSS (TIANHE)","OBJECT_ID":"2021-035A","EPOCH":"2026-04-29T07:01:34.605696","MEAN_MOTION":15.63149064,"ECCENTRICITY":0.00067205,"INCLINATION":41.467,"RA_OF_ASC_NODE":259.6892,"ARG_OF_PERICENTER":294.8337,"MEAN_ANOMALY":65.1804,"EPHEMERIS_TYPE":0,"CLASSIFICATION_TYPE":"U","NORAD_CAT_ID":48274,"ELEMENT_SET_NO":999,"REV_AT_EPOCH":28552,"BSTAR":0.00026128437,"MEAN_MOTION_DOT":0.00024304,"MEAN_MOTION_DDOT":0},{"OBJECT_NAME":"COSMOS 2550","OBJECT_ID":"2021-056A","EPOCH":"2026-04-28T20:34:54.225120","MEAN_MOTION":15.33829624,"ECCENTRICITY":0.00083995,"INCLINATION":67.1429,"RA_OF_ASC_NODE":249.1245,"ARG_OF_PERICENTER":269.8654,"MEAN_ANOMALY":90.1538,"EPHEMERIS_TYPE":0,"CLASSIFICATION_TYPE":"U","NORAD_CAT_ID":48865,"ELEMENT_SET_NO":999,"REV_AT_EPOCH":27115,"BSTAR":2.522736e-6,"MEAN_MOTION_DOT":-1.09e-6,"MEAN_MOTION_DDOT":0},{"OBJECT_NAME":"CZ-2C R/B","OBJECT_ID":"2022-058K","EPOCH":"2026-04-29T05:47:00.640896","MEAN_MOTION":15.58056658,"ECCENTRICITY":0.003822,"INCLINATION":50.1872,"RA_OF_ASC_NODE":57.4968,"ARG_OF_PERICENTER":57.6083,"MEAN_ANOMALY":302.8579,"EPHEMERIS_TYPE":0,"CLASSIFICATION_TYPE":"U","NORAD_CAT_ID":52794,"ELEMENT_SET_NO":999,"REV_AT_EPOCH":21800,"BSTAR":0.00055004045,"MEAN_MOTION_DOT":0.0004334,"MEAN_MOTION_DDOT":0},{"OBJECT_NAME":"CZ-2C R/B","OBJECT_ID":"2022-132E","EPOCH":"2026-04-29T00:54:00.747360","MEAN_MOTION":15.66496857,"ECCENTRICITY":0.00130264,"INCLINATION":97.2926,"RA_OF_ASC_NODE":124.0645,"ARG_OF_PERICENTER":256.2777,"MEAN_ANOMALY":103.7033,"EPHEMERIS_TYPE":0,"CLASSIFICATION_TYPE":"U","NORAD_CAT_ID":54039,"ELEMENT_SET_NO":999,"REV_AT_EPOCH":19824,"BSTAR":0.00045213268,"MEAN_MOTION_DOT":0.00047324,"MEAN_MOTION_DDOT":0},{"OBJECT_NAME":"GSLV R/B","OBJECT_ID":"2022-138AN","EPOCH":"2026-04-29T07:48:22.098528","MEAN_MOTION":14.97041733,"ECCENTRICITY":0.00199519,"INCLINATION":87.3808,"RA_OF_ASC_NODE":149.3941,"ARG_OF_PERICENTER":334.1612,"MEAN_ANOMALY":25.8622,"EPHEMERIS_TYPE":0,"CLASSIFICATION_TYPE":"U","NORAD_CAT_ID":54149,"ELEMENT_SET_NO":999,"REV_AT_EPOCH":19150,"BSTAR":0.00016894405,"MEAN_MOTION_DOT":1.981e-5,"MEAN_MOTION_DDOT":0},{"OBJECT_NAME":"XRISM","OBJECT_ID":"2023-137A","EPOCH":"2026-04-29T05:10:13.423296","MEAN_MOTION":15.12039705,"ECCENTRICITY":0.00076558,"INCLINATION":31.0021,"RA_OF_ASC_NODE":316.7162,"ARG_OF_PERICENTER":190.1191,"MEAN_ANOMALY":169.9295,"EPHEMERIS_TYPE":0,"CLASSIFICATION_TYPE":"U","NORAD_CAT_ID":57800,"ELEMENT_SET_NO":999,"REV_AT_EPOCH":14544,"BSTAR":0.00028194453,"MEAN_MOTION_DOT":5.068e-5,"MEAN_MOTION_DDOT":0},{"OBJECT_NAME":"ACS3","OBJECT_ID":"2024-077B","EPOCH":"2026-04-28T10:13:50.800224","MEAN_MOTION":13.91927163,"ECCENTRICITY":0.00583429,"INCLINATION":97.1803,"RA_OF_ASC_NODE":48.3648,"ARG_OF_PERICENTER":343.7079,"MEAN_ANOMALY":16.2209,"EPHEMERIS_TYPE":0,"CLASSIFICATION_TYPE":"U","NORAD_CAT_ID":59588,"ELEMENT_SET_NO":999,"REV_AT_EPOCH":10111,"BSTAR":0.00075623299,"MEAN_MOTION_DOT":9.48e-6,"MEAN_MOTION_DDOT":0},{"OBJECT_NAME":"HTV-X1","OBJECT_ID":"2025-241A","EPOCH":"2026-04-28T13:25:28.917408","MEAN_MOTION":15.63079555,"ECCENTRICITY":0.00071329,"INCLINATION":51.6354,"RA_OF_ASC_NODE":191.333,"ARG_OF_PERICENTER":1.9599,"MEAN_ANOMALY":358.1422,"EPHEMERIS_TYPE":0,"CLASSIFICATION_TYPE":"U","NORAD_CAT_ID":66174,"ELEMENT_SET_NO":999,"REV_AT_EPOCH":2858,"BSTAR":0.00015523295,"MEAN_MOTION_DOT":0.00013912,"MEAN_MOTION_DDOT":0},{"OBJECT_NAME":"SZ-21 MODULE","OBJECT_ID":"2025-246C","EPOCH":"2026-04-28T16:08:19.756896","MEAN_MOTION":15.72433742,"ECCENTRICITY":0.00037062,"INCLINATION":41.4734,"RA_OF_ASC_NODE":254.7618,"ARG_OF_PERICENTER":344.0084,"MEAN_ANOMALY":16.0641,"EPHEMERIS_TYPE":0,"CLASSIFICATION_TYPE":"U","NORAD_CAT_ID":66515,"ELEMENT_SET_NO":999,"REV_AT_EPOCH":2593,"BSTAR":0.00029633823,"MEAN_MOTION_DOT":0.00040544,"MEAN_MOTION_DDOT":0}]
